{"type": "FeatureCollection", "features": [{"type": "Feature", "properties": {"norad_id": 24876, "name": "GPS BIIR-2  (PRN 13)", "group": "gnss", "lat": 44.20339195191539, "lon": -115.79295743324178, "alt_km": 20069.36274653393, "timestamp": "2025-12-25T20:42:38.931621+00:00", "meta": {"OBJECT_NAME": "GPS BIIR-2  (PRN 13)", "OBJECT_ID": "1997-035A", "EPOCH": "2025-12-25T04:43:59.117664", "MEAN_MOTION": 2.00563692, "ECCENTRICITY": 0.00968489, "INCLINATION": 55.901, "RA_OF_ASC_NODE": 105.3817, "ARG_OF_PERICENTER": 56.9385, "MEAN_ANOMALY": 303.9881, "EPHEMERIS_TYPE": 0, "CLASSIFICATION_TYPE": "U", "NORAD_CAT_ID": 24876, "ELEMENT_SET_NO": 999, "REV_AT_EPOCH": 20846, "BSTAR": 0, "MEAN_MOTION_DOT": 2.8e-07, "MEAN_MOTION_DDOT": 0}, "tle": {"line1": "1 24876U 97035A   25359.19721201  .00000028  00000+0  00000+0 0  9996", "line2": "2 24876  55.9010 105.3817 0096848  56.9385 303.9881  2.00563692208460"}}, "geometry": {"type": "Point", "coordinates": [-115.79295743324178, 44.20339195191539]}}, {"type": "Feature", "properties": {"norad_id": 26360, "name": "GPS BIIR-4  (PRN 20)", "group": "gnss", "lat": -26.88803199810624, "lon": -132.91945025766674, "alt_km": 20095.522145799783, "timestamp": "2025-12-25T20:42:38.931658+00:00", "meta": {"OBJECT_NAME": "GPS BIIR-4  (PRN 20)", "OBJECT_ID": "2000-025A", "EPOCH": "2025-12-25T02:59:32.925696", "MEAN_MOTION": 2.00566595, "ECCENTRICITY": 0.00388927, "INCLINATION": 55.0525, "RA_OF_ASC_NODE": 26.337, "ARG_OF_PERICENTER": 243.1637, "MEAN_ANOMALY": 157.4834, "EPHEMERIS_TYPE": 0, "CLASSIFICATION_TYPE": "U", "NORAD_CAT_ID": 26360, "ELEMENT_SET_NO": 999, "REV_AT_EPOCH": 18778, "BSTAR": 0, "MEAN_MOTION_DOT": -5.6e-07, "MEAN_MOTION_DDOT": 0}, "tle": {"line1": "1 26360U 00025A   25359.12468664 -.00000056  00000+0  00000+0 0  9995", "line2": "2 26360  55.0525  26.3370 0038892 243.1637 157.4834  2.00566595187789"}}, "geometry": {"type": "Point", "coordinates": [-132.91945025766674, -26.88803199810624]}}, {"type": "Feature", "properties": {"norad_id": 26407, "name": "GPS BIIR-5  (PRN 22)", "group": "gnss", "lat": 41.86506365370351, "lon": -98.86235250080047, "alt_km": 20301.292657923866, "timestamp": "2025-12-25T20:42:38.931676+00:00", "meta": {"OBJECT_NAME": "GPS BIIR-5  (PRN 22)", "OBJECT_ID": "2000-040A", "EPOCH": "2025-12-25T00:58:38.180352", "MEAN_MOTION": 2.00568081, "ECCENTRICITY": 0.01253464, "INCLINATION": 54.8881, "RA_OF_ASC_NODE": 222.0798, "ARG_OF_PERICENTER": 302.0038, "MEAN_ANOMALY": 237.7094, "EPHEMERIS_TYPE": 0, "CLASSIFICATION_TYPE": "U", "NORAD_CAT_ID": 26407, "ELEMENT_SET_NO": 999, "REV_AT_EPOCH": 18645, "BSTAR": 0, "MEAN_MOTION_DOT": 6.7e-07, "MEAN_MOTION_DDOT": 0}, "tle": {"line1": "1 26407U 00040A   25359.04071968  .00000067  00000+0  00000+0 0  9993", "line2": "2 26407  54.8881 222.0798 0125346 302.0038 237.7094  2.00568081186458"}}, "geometry": {"type": "Point", "coordinates": [-98.86235250080047, 41.86506365370351]}}, {"type": "Feature", "properties": {"norad_id": 27663, "name": "GPS BIIR-8  (PRN 16)", "group": "gnss", "lat": -8.597603407288112, "lon": 47.966097662789835, "alt_km": 20474.923266816368, "timestamp": "2025-12-25T20:42:38.931691+00:00", "meta": {"OBJECT_NAME": "GPS BIIR-8  (PRN 16)", "OBJECT_ID": "2003-005A", "EPOCH": "2025-12-24T14:50:30.961824", "MEAN_MOTION": 2.00570207, "ECCENTRICITY": 0.01478624, "INCLINATION": 54.9207, "RA_OF_ASC_NODE": 221.9058, "ARG_OF_PERICENTER": 51.9747, "MEAN_ANOMALY": 318.7946, "EPHEMERIS_TYPE": 0, "CLASSIFICATION_TYPE": "U", "NORAD_CAT_ID": 27663, "ELEMENT_SET_NO": 999, "REV_AT_EPOCH": 16781, "BSTAR": 0, "MEAN_MOTION_DOT": 6.6e-07, "MEAN_MOTION_DDOT": 0}, "tle": {"line1": "1 27663U 03005A   25358.61841391  .00000066  00000+0  00000+0 0  9998", "line2": "2 27663  54.9207 221.9058 0147862  51.9747 318.7946  2.00570207167815"}}, "geometry": {"type": "Point", "coordinates": [47.966097662789835, -8.597603407288112]}}, {"type": "Feature", "properties": {"norad_id": 28190, "name": "GPS BIIR-11 (PRN 19)", "group": "gnss", "lat": -10.110535898662848, "lon": -84.49151926492462, "alt_km": 20472.86108629337, "timestamp": "2025-12-25T20:42:38.931704+00:00", "meta": {"OBJECT_NAME": "GPS BIIR-11 (PRN 19)", "OBJECT_ID": "2004-009A", "EPOCH": "2025-12-25T00:56:53.599200", "MEAN_MOTION": 2.00560295, "ECCENTRICITY": 0.01085715, "INCLINATION": 54.9745, "RA_OF_ASC_NODE": 282.7233, "ARG_OF_PERICENTER": 167.849, "MEAN_ANOMALY": 305.251, "EPHEMERIS_TYPE": 0, "CLASSIFICATION_TYPE": "U", "NORAD_CAT_ID": 28190, "ELEMENT_SET_NO": 999, "REV_AT_EPOCH": 15945, "BSTAR": 0, "MEAN_MOTION_DOT": -2.6e-07, "MEAN_MOTION_DDOT": 0}, "tle": {"line1": "1 28190U 04009A   25359.03950925 -.00000026  00000+0  00000+0 0  9997", "line2": "2 28190  54.9745 282.7233 0108571 167.8490 305.2510  2.00560295159459"}}, "geometry": {"type": "Point", "coordinates": [-84.49151926492462, -10.110535898662848]}}, {"type": "Feature", "properties": {"norad_id": 28474, "name": "GPS BIIR-13 (PRN 02)", "group": "gnss", "lat": 39.06637176211073, "lon": 6.163527534202109, "alt_km": 20250.966074229727, "timestamp": "2025-12-25T20:42:38.931717+00:00", "meta": {"OBJECT_NAME": "GPS BIIR-13 (PRN 02)", "OBJECT_ID": "2004-045A", "EPOCH": "2025-12-25T06:51:33.527808", "MEAN_MOTION": 2.00570039, "ECCENTRICITY": 0.01709889, "INCLINATION": 55.2344, "RA_OF_ASC_NODE": 331.9013, "ARG_OF_PERICENTER": 309.8108, "MEAN_ANOMALY": 41.6127, "EPHEMERIS_TYPE": 0, "CLASSIFICATION_TYPE": "U", "NORAD_CAT_ID": 28474, "ELEMENT_SET_NO": 999, "REV_AT_EPOCH": 15493, "BSTAR": 0, "MEAN_MOTION_DOT": -5.9e-07, "MEAN_MOTION_DDOT": 0}, "tle": {"line1": "1 28474U 04045A   25359.28580472 -.00000059  00000+0  00000+0 0  9991", "line2": "2 28474  55.2344 331.9013 0170988 309.8108  41.6127  2.00570039154931"}}, "geometry": {"type": "Point", "coordinates": [6.163527534202109, 39.06637176211073]}}, {"type": "Feature", "properties": {"norad_id": 28874, "name": "GPS BIIRM-1 (PRN 17)", "group": "gnss", "lat": 7.268376936330626, "lon": -74.71669521103972, "alt_km": 20085.576109131864, "timestamp": "2025-12-25T20:42:38.931730+00:00", "meta": {"OBJECT_NAME": "GPS BIIRM-1 (PRN 17)", "OBJECT_ID": "2005-038A", "EPOCH": "2025-12-24T20:45:31.120992", "MEAN_MOTION": 2.00577585, "ECCENTRICITY": 0.0131256, "INCLINATION": 55.0211, "RA_OF_ASC_NODE": 280.2128, "ARG_OF_PERICENTER": 293.8377, "MEAN_ANOMALY": 72.9738, "EPHEMERIS_TYPE": 0, "CLASSIFICATION_TYPE": "U", "NORAD_CAT_ID": 28874, "ELEMENT_SET_NO": 999, "REV_AT_EPOCH": 14834, "BSTAR": 0, "MEAN_MOTION_DOT": -2.3e-07, "MEAN_MOTION_DDOT": 0}, "tle": {"line1": "1 28874U 05038A   25358.86494353 -.00000023  00000+0  00000+0 0  9994", "line2": "2 28874  55.0211 280.2128 0131256 293.8377  72.9738  2.00577585148340"}}, "geometry": {"type": "Point", "coordinates": [-74.71669521103972, 7.268376936330626]}}, {"type": "Feature", "properties": {"norad_id": 28899, "name": "INMARSAT 4-F2 (SOUTHPAN/PRN 122)", "group": "gnss", "lat": 2.791890942587252, "lon": -171.15887428664206, "alt_km": 35785.27654673216, "timestamp": "2025-12-25T20:42:38.931743+00:00", "meta": {"OBJECT_NAME": "INMARSAT 4-F2 (SOUTHPAN/PRN 122)", "OBJECT_ID": "2005-044A", "EPOCH": "2025-12-24T22:20:32.961120", "MEAN_MOTION": 1.00270677, "ECCENTRICITY": 0.00024672, "INCLINATION": 4.8665, "RA_OF_ASC_NODE": 43.7125, "ARG_OF_PERICENTER": 230.3576, "MEAN_ANOMALY": 298.2665, "EPHEMERIS_TYPE": 0, "CLASSIFICATION_TYPE": "U", "NORAD_CAT_ID": 28899, "ELEMENT_SET_NO": 999, "REV_AT_EPOCH": 7377, "BSTAR": 0, "MEAN_MOTION_DOT": -2.41e-06, "MEAN_MOTION_DDOT": 0}, "tle": {"line1": "1 28899U 05044A   25358.93093705 -.00000241  00000+0  00000+0 0  9994", "line2": "2 28899   4.8665  43.7125 0002467 230.3576 298.2665  1.00270677 73776"}}, "geometry": {"type": "Point", "coordinates": [-171.15887428664206, 2.791890942587252]}}, {"type": "Feature", "properties": {"norad_id": 29486, "name": "GPS BIIRM-2 (PRN 31)", "group": "gnss", "lat": -54.660331694666574, "lon": 66.1344117201224, "alt_km": 20416.573314273955, "timestamp": "2025-12-25T20:42:38.931755+00:00", "meta": {"OBJECT_NAME": "GPS BIIRM-2 (PRN 31)", "OBJECT_ID": "2006-042A", "EPOCH": "2025-12-24T23:42:55.072224", "MEAN_MOTION": 2.00553643, "ECCENTRICITY": 0.01072754, "INCLINATION": 54.6955, "RA_OF_ASC_NODE": 158.2549, "ARG_OF_PERICENTER": 52.2355, "MEAN_ANOMALY": 305.6317, "EPHEMERIS_TYPE": 0, "CLASSIFICATION_TYPE": "U", "NORAD_CAT_ID": 29486, "ELEMENT_SET_NO": 999, "REV_AT_EPOCH": 14089, "BSTAR": 0, "MEAN_MOTION_DOT": 9.7e-07, "MEAN_MOTION_DDOT": 0}, "tle": {"line1": "1 29486U 06042A   25358.98813741  .00000097  00000+0  00000+0 0  9999", "line2": "2 29486  54.6955 158.2549 0107275  52.2355 305.6317  2.00553643140898"}}, "geometry": {"type": "Point", "coordinates": [66.1344117201224, -54.660331694666574]}}, {"type": "Feature", "properties": {"norad_id": 29601, "name": "GPS BIIRM-3 (PRN 12)", "group": "gnss", "lat": -26.364575781188137, "lon": -159.4529471970704, "alt_km": 20301.395858402047, "timestamp": "2025-12-25T20:42:38.931767+00:00", "meta": {"OBJECT_NAME": "GPS BIIRM-3 (PRN 12)", "OBJECT_ID": "2006-052A", "EPOCH": "2025-12-23T21:56:47.372352", "MEAN_MOTION": 2.0057433, "ECCENTRICITY": 0.00880015, "INCLINATION": 54.9684, "RA_OF_ASC_NODE": 220.9547, "ARG_OF_PERICENTER": 87.5747, "MEAN_ANOMALY": 273.5181, "EPHEMERIS_TYPE": 0, "CLASSIFICATION_TYPE": "U", "NORAD_CAT_ID": 29601, "ELEMENT_SET_NO": 999, "REV_AT_EPOCH": 13989, "BSTAR": 0, "MEAN_MOTION_DOT": 6.7e-07, "MEAN_MOTION_DDOT": 0}, "tle": {"line1": "1 29601U 06052A   25357.91443718  .00000067  00000+0  00000+0 0  9991", "line2": "2 29601  54.9684 220.9547 0088001  87.5747 273.5181  2.00574330139891"}}, "geometry": {"type": "Point", "coordinates": [-159.4529471970704, -26.364575781188137]}}]}